SL-3 R/B                
1 13403U 82079B   26011.95305507  .00006404  00000+0  26092-3 0  9996
2 13403  81.1463 260.0386 0025556   0.9444 359.1832 15.24009975369051
SL-14 R/B               
1 13553U 82092B   26011.98044696  .00000577  00000+0  61996-4 0  9997
2 13553  82.5669 194.4281 0021558 126.8860 348.5746 14.86591845320504
SL-3 R/B                
1 13819U 83010B   26011.64993077  .00013649  00000+0  29323-3 0  9993
2 13819  81.1035  72.0840 0016222 243.0088 116.9500 15.44407457349134
SL-3 R/B                
1 14208U 83075B   26011.94054335  .00012182  00000+0  33682-3 0  9999
2 14208  97.6119  14.4550 0024448  74.2281 286.1656 15.36876936321436
COSMOS 1536             
1 14699U 84013A   26011.90324088  .00007207  00000+0  30440-3 0  9998
2 14699  82.5457 164.2412 0015579 120.0756 240.2028 15.22977684263976
SL-14 R/B               
1 14820U 84027B   26011.92649516  .00000516  00000+0  56246-4 0  9996
2 14820  82.5432 298.2502 0018491 156.8152 203.3903 14.85913127239207
SL-8 R/B                
1 15483U 85006B   26011.76293391  .00000311  00000+0  11189-3 0  9997
2 15483  74.0461   5.8927 0019737 293.0001 240.5095 14.37744344145846
SL-12 R/B(2)            
1 15772U 85042D   26012.00506596  .00000107  00000+0  69487-4 0  9998
2 15772  71.1063 207.4819 0036548 216.7591 255.1722 14.21961803106332
SL-14 R/B               
1 15945U 85069B   26011.92852743  .00000477  00000+0  51225-4 0  9998
2 15945  82.5261  78.3213 0019385  24.9300 335.2849 14.86363235164408
SL-16 R/B               
1 16182U 85097B   26012.00887704  .00000101  00000+0  74610-4 0  9995
2 16182  71.0026 259.8803 0008498 327.6214 128.6142 14.16592134 79203
SL-14 R/B               
1 16496U 86006B   26011.85281440  .00000697  00000+0  71159-4 0  9996
2 16496  82.5288 313.2194 0078265 100.8541 260.1496 14.86718431140760
COSMOS 1743             
1 16719U 86034A   26011.87148996  .00034771  00000+0  53088-3 0  9995
2 16719  82.5349 133.2494 0005214 137.6887 222.4769 15.54252061171412
