CCSDS_OMM_VERS = 2.0
CREATION_DATE  = 
ORIGINATOR     = 

OBJECT_NAME    = SL-3 R/B
OBJECT_ID      = 1982-079B
CENTER_NAME    = EARTH
REF_FRAME      = TEME
TIME_SYSTEM    = UTC
MEAN_ELEMENT_THEORY = SGP/SGP4

EPOCH          = 2026-01-11T22:52:23.958048
MEAN_MOTION    = 15.24009975
ECCENTRICITY   = .00255561
INCLINATION    = 81.1463
RA_OF_ASC_NODE = 260.0386
ARG_OF_PERICENTER = 0.9444
MEAN_ANOMALY   = 359.1832

EPHEMERIS_TYPE = 0
CLASSIFICATION_TYPE = U
NORAD_CAT_ID   = 13403
ELEMENT_SET_NO = 999
REV_AT_EPOCH   = 36905
BSTAR          = .26091977E-3
MEAN_MOTION_DOT = .6404E-4
MEAN_MOTION_DDOT = 0

CCSDS_OMM_VERS = 2.0
CREATION_DATE  = 
ORIGINATOR     = 

OBJECT_NAME    = SL-14 R/B
OBJECT_ID      = 1982-092B
CENTER_NAME    = EARTH
REF_FRAME      = TEME
TIME_SYSTEM    = UTC
MEAN_ELEMENT_THEORY = SGP/SGP4

EPOCH          = 2026-01-11T23:31:50.617344
MEAN_MOTION    = 14.86591845
ECCENTRICITY   = .00215581
INCLINATION    = 82.5669
RA_OF_ASC_NODE = 194.4281
ARG_OF_PERICENTER = 126.8860
MEAN_ANOMALY   = 348.5746

EPHEMERIS_TYPE = 0
CLASSIFICATION_TYPE = U
NORAD_CAT_ID   = 13553
ELEMENT_SET_NO = 999
REV_AT_EPOCH   = 32050
BSTAR          = .61996485E-4
MEAN_MOTION_DOT = .577E-5
MEAN_MOTION_DDOT = 0

CCSDS_OMM_VERS = 2.0
CREATION_DATE  = 
ORIGINATOR     = 

OBJECT_NAME    = SL-3 R/B
OBJECT_ID      = 1983-010B
CENTER_NAME    = EARTH
REF_FRAME      = TEME
TIME_SYSTEM    = UTC
MEAN_ELEMENT_THEORY = SGP/SGP4

EPOCH          = 2026-01-11T15:35:54.018528
MEAN_MOTION    = 15.44407457
ECCENTRICITY   = .00162229
INCLINATION    = 81.1035
RA_OF_ASC_NODE = 72.0840
ARG_OF_PERICENTER = 243.0088
MEAN_ANOMALY   = 116.9500

EPHEMERIS_TYPE = 0
CLASSIFICATION_TYPE = U
NORAD_CAT_ID   = 13819
ELEMENT_SET_NO = 999
REV_AT_EPOCH   = 34913
BSTAR          = .29322589E-3
MEAN_MOTION_DOT = .13649E-3
MEAN_MOTION_DDOT = 0

CCSDS_OMM_VERS = 2.0
CREATION_DATE  = 
ORIGINATOR     = 

OBJECT_NAME    = SL-3 R/B
OBJECT_ID      = 1983-075B
CENTER_NAME    = EARTH
REF_FRAME      = TEME
TIME_SYSTEM    = UTC
MEAN_ELEMENT_THEORY = SGP/SGP4

EPOCH          = 2026-01-11T22:34:22.945440
MEAN_MOTION    = 15.36876936
ECCENTRICITY   = .00244486
INCLINATION    = 97.6119
RA_OF_ASC_NODE = 14.4550
ARG_OF_PERICENTER = 74.2281
MEAN_ANOMALY   = 286.1656

EPHEMERIS_TYPE = 0
CLASSIFICATION_TYPE = U
NORAD_CAT_ID   = 14208
ELEMENT_SET_NO = 999
REV_AT_EPOCH   = 32143
BSTAR          = .33682365E-3
MEAN_MOTION_DOT = .12182E-3
MEAN_MOTION_DDOT = 0

CCSDS_OMM_VERS = 2.0
CREATION_DATE  = 
ORIGINATOR     = 

OBJECT_NAME    = COSMOS 1536
OBJECT_ID      = 1984-013A
CENTER_NAME    = EARTH
REF_FRAME      = TEME
TIME_SYSTEM    = UTC
MEAN_ELEMENT_THEORY = SGP/SGP4

EPOCH          = 2026-01-11T21:40:40.012032
MEAN_MOTION    = 15.22977684
ECCENTRICITY   = .00155791
INCLINATION    = 82.5457
RA_OF_ASC_NODE = 164.2412
ARG_OF_PERICENTER = 120.0756
MEAN_ANOMALY   = 240.2028

EPHEMERIS_TYPE = 0
CLASSIFICATION_TYPE = U
NORAD_CAT_ID   = 14699
ELEMENT_SET_NO = 999
REV_AT_EPOCH   = 26397
BSTAR          = .30439863E-3
MEAN_MOTION_DOT = .7207E-4
MEAN_MOTION_DDOT = 0

CCSDS_OMM_VERS = 2.0
CREATION_DATE  = 
ORIGINATOR     = 

OBJECT_NAME    = SL-14 R/B
OBJECT_ID      = 1984-027B
CENTER_NAME    = EARTH
REF_FRAME      = TEME
TIME_SYSTEM    = UTC
MEAN_ELEMENT_THEORY = SGP/SGP4

EPOCH          = 2026-01-11T22:14:09.181824
MEAN_MOTION    = 14.85913127
ECCENTRICITY   = .00184917
INCLINATION    = 82.5432
RA_OF_ASC_NODE = 298.2502
ARG_OF_PERICENTER = 156.8152
MEAN_ANOMALY   = 203.3903

EPHEMERIS_TYPE = 0
CLASSIFICATION_TYPE = U
NORAD_CAT_ID   = 14820
ELEMENT_SET_NO = 999
REV_AT_EPOCH   = 23920
BSTAR          = .56246136E-4
MEAN_MOTION_DOT = .516E-5
MEAN_MOTION_DDOT = 0

CCSDS_OMM_VERS = 2.0
CREATION_DATE  = 
ORIGINATOR     = 

OBJECT_NAME    = SL-8 R/B
OBJECT_ID      = 1985-006B
CENTER_NAME    = EARTH
REF_FRAME      = TEME
TIME_SYSTEM    = UTC
MEAN_ELEMENT_THEORY = SGP/SGP4

EPOCH          = 2026-01-11T18:18:37.489824
MEAN_MOTION    = 14.37744344
ECCENTRICITY   = .00197377
INCLINATION    = 74.0461
RA_OF_ASC_NODE = 5.8927
ARG_OF_PERICENTER = 293.0001
MEAN_ANOMALY   = 240.5095

EPHEMERIS_TYPE = 0
CLASSIFICATION_TYPE = U
NORAD_CAT_ID   = 15483
ELEMENT_SET_NO = 999
REV_AT_EPOCH   = 14584
BSTAR          = .11188664E-3
MEAN_MOTION_DOT = .311E-5
MEAN_MOTION_DDOT = 0

CCSDS_OMM_VERS = 2.0
CREATION_DATE  = 
ORIGINATOR     = 

OBJECT_NAME    = SL-12 R/B(2)
OBJECT_ID      = 1985-042D
CENTER_NAME    = EARTH
REF_FRAME      = TEME
TIME_SYSTEM    = UTC
MEAN_ELEMENT_THEORY = SGP/SGP4

EPOCH          = 2026-01-12T00:07:17.698944
MEAN_MOTION    = 14.21961803
ECCENTRICITY   = .00365481
INCLINATION    = 71.1063
RA_OF_ASC_NODE = 207.4819
ARG_OF_PERICENTER = 216.7591
MEAN_ANOMALY   = 255.1722

EPHEMERIS_TYPE = 0
CLASSIFICATION_TYPE = U
NORAD_CAT_ID   = 15772
ELEMENT_SET_NO = 999
REV_AT_EPOCH   = 10633
BSTAR          = .6948739E-4
MEAN_MOTION_DOT = .107E-5
MEAN_MOTION_DDOT = 0

CCSDS_OMM_VERS = 2.0
CREATION_DATE  = 
ORIGINATOR     = 

OBJECT_NAME    = SL-14 R/B
OBJECT_ID      = 1985-069B
CENTER_NAME    = EARTH
REF_FRAME      = TEME
TIME_SYSTEM    = UTC
MEAN_ELEMENT_THEORY = SGP/SGP4

EPOCH          = 2026-01-11T22:17:04.769952
MEAN_MOTION    = 14.86363235
ECCENTRICITY   = .00193859
INCLINATION    = 82.5261
RA_OF_ASC_NODE = 78.3213
ARG_OF_PERICENTER = 24.9300
MEAN_ANOMALY   = 335.2849

EPHEMERIS_TYPE = 0
CLASSIFICATION_TYPE = U
NORAD_CAT_ID   = 15945
ELEMENT_SET_NO = 999
REV_AT_EPOCH   = 16440
BSTAR          = .51225027E-4
MEAN_MOTION_DOT = .477E-5
MEAN_MOTION_DDOT = 0

CCSDS_OMM_VERS = 2.0
CREATION_DATE  = 
ORIGINATOR     = 

OBJECT_NAME    = SL-16 R/B
OBJECT_ID      = 1985-097B
CENTER_NAME    = EARTH
REF_FRAME      = TEME
TIME_SYSTEM    = UTC
MEAN_ELEMENT_THEORY = SGP/SGP4

EPOCH          = 2026-01-12T00:12:46.976256
MEAN_MOTION    = 14.16592134
ECCENTRICITY   = .00084985
INCLINATION    = 71.0026
RA_OF_ASC_NODE = 259.8803
ARG_OF_PERICENTER = 327.6214
MEAN_ANOMALY   = 128.6142

EPHEMERIS_TYPE = 0
CLASSIFICATION_TYPE = U
NORAD_CAT_ID   = 16182
ELEMENT_SET_NO = 999
REV_AT_EPOCH   = 7920
BSTAR          = .74610407E-4
MEAN_MOTION_DOT = .101E-5
MEAN_MOTION_DDOT = 0

CCSDS_OMM_VERS = 2.0
CREATION_DATE  = 
ORIGINATOR     = 

OBJECT_NAME    = SL-14 R/B
OBJECT_ID      = 1986-006B
CENTER_NAME    = EARTH
REF_FRAME      = TEME
TIME_SYSTEM    = UTC
MEAN_ELEMENT_THEORY = SGP/SGP4

EPOCH          = 2026-01-11T20:28:03.164160
MEAN_MOTION    = 14.86718431
ECCENTRICITY   = .00782653
INCLINATION    = 82.5288
RA_OF_ASC_NODE = 313.2194
ARG_OF_PERICENTER = 100.8541
MEAN_ANOMALY   = 260.1496

EPHEMERIS_TYPE = 0
CLASSIFICATION_TYPE = U
NORAD_CAT_ID   = 16496
ELEMENT_SET_NO = 999
REV_AT_EPOCH   = 14076
BSTAR          = .71159311E-4
MEAN_MOTION_DOT = .697E-5
MEAN_MOTION_DDOT = 0

CCSDS_OMM_VERS = 2.0
CREATION_DATE  = 
ORIGINATOR     = 

OBJECT_NAME    = COSMOS 1743
OBJECT_ID      = 1986-034A
CENTER_NAME    = EARTH
REF_FRAME      = TEME
TIME_SYSTEM    = UTC
MEAN_ELEMENT_THEORY = SGP/SGP4

EPOCH          = 2026-01-11T20:54:56.732544
MEAN_MOTION    = 15.54252061
ECCENTRICITY   = .00052142
INCLINATION    = 82.5349
RA_OF_ASC_NODE = 133.2494
ARG_OF_PERICENTER = 137.6887
MEAN_ANOMALY   = 222.4769

EPHEMERIS_TYPE = 0
CLASSIFICATION_TYPE = U
NORAD_CAT_ID   = 16719
ELEMENT_SET_NO = 999
REV_AT_EPOCH   = 17141
BSTAR          = .53088361E-3
MEAN_MOTION_DOT = .34771E-3
MEAN_MOTION_DDOT = 0

